0 COSMOS 1140
1 11573U 79089A   13281.17842582  .00000088  00000-0  39067-4 0  4329
2 11573 074.0660 289.1713 0014746 123.1627 001.7938 14.36158309779491
0 COSMOS 1140
1 11573U 79089A   13282.51043336  .00000123  00000-0  50954-4 0  4337
2 11573 074.0660 286.7298 0014726 120.2173 048.6695 14.36159021779687
0 COSMOS 1140
1 11573U 79089A   13283.61924196  .00000122  00000-0  50761-4 0  4347
2 11573 074.0659 284.6973 0014709 117.7409 021.5665 14.36159295779844
0 COSMOS 1140
1 11573U 79089A   13286.18011309  .00000078  00000-0  35562-4 0  4369
2 11573 074.0660 280.0031 0014689 111.8576 302.2610 14.36160277780212
0 COSMOS 1140
1 11573U 79089A   13287.37427815  .00000108  00000-0  45862-4 0  4373
2 11573 074.0661 277.8140 0014677 109.1810 356.4942 14.36160426780389
0 COSMOS 1140
1 11573U 79089A   13288.41980234  .00000149  00000-0  59862-4 0  4389
2 11573 074.0663 275.8975 0014674 106.8265 002.2153 14.36160997780530
0 COSMOS 1140
1 11573U 79089A   13289.47242160  .00000102  00000-0  43669-4 0  4393
2 11573 074.0665 273.9679 0014687 104.4522 044.6261 14.36161680780682
0 COSMOS 1140
1 11573U 79089A   13290.51516279  .00000148  00000-0  59492-4 0  4408
2 11573 074.0667 272.0564 0014663 102.2195 035.8484 14.36161873780833
0 COSMOS 1140
1 11573U 79089A   13292.10418119  .00000181  00000-0  70911-4 0  4416
2 11573 074.0669 269.1438 0014668 098.6588 331.6148 14.36162037781064
0 COSMOS 1140
1 11573U 79089A   13293.51059833  .00000186  00000-0  72605-4 0  4424
2 11573 074.0671 266.5661 0014679 095.4383 043.3388 14.36162796781263
0 COSMOS 1140
1 11573U 79089A   13295.09589097  .00000221  00000-0  84647-4 0  4439
2 11573 074.0671 263.6604 0014701 091.8533 319.8798 14.36163324781490
